ONEWEB-0525             
1 54143U 22138AG  23302.80449239 -.00002856  00000+0 -71682-2 0  9990
2 54143  87.9181 136.3260 0002185  69.6377 290.4990 13.19738556 50026
ONEWEB-0526             
1 54144U 22138AH  23302.91348085  .00000021  00000+0  19127-4 0  9998
2 54144  87.9183 136.3040 0001523  78.6207 281.5097 13.19727478 50011
ONEWEB-0529             
1 54145U 22138AJ  23302.84083057  .00000046  00000+0  81477-4 0  9990
2 54145  87.9178 136.3168 0001686  68.5562 291.5750 13.19726194 50021
ONEWEB-0531             
1 54146U 22138AK  23302.87934748  .00000043  00000+0  74041-4 0  9992
2 54146  87.9195 105.7835 0001289 134.3138 225.8101 13.20773646 52413
ONEWEB-0535             
1 54147U 22138AL  23302.79816431 -.00003377  00000+0 -84683-2 0  9998
2 54147  87.9179 136.3260 0002155  88.0003 272.1377 13.19740691 50035
ONEWEB-0536             
1 54148U 22138AM  23302.94247094  .00000074  00000+0  14988-3 0  9990
2 54148  87.9196 105.8209 0002255 121.0948 239.0407 13.20770141 52411
GSLV R/B                
1 54149U 22138AN  23302.94277685  .00003800  00000+0  39734-3 0  9996
2 54149  87.3768  93.9740 0025686  31.8760 328.4015 14.89164169 55358
ONEWEB-0527             
1 54642U 22166A   23302.90267042 -.00000070  00000+0 -20091-3 0  9991
2 54642  87.9201  75.3794 0001538  96.7499 263.3810 13.21828926 44548
